{"type": "FeatureCollection", "features": [ {"type": "Feature", "properties": {"norad_id": 33980, "name": "COSMOS 2251 DEB", "group": "cosmos-2251-debris", "lat": -0.7309471436253819, "lon": 31.172943207792436, "alt_km": 719.5540208076118, "timestamp": "2025-12-27T10:28:59.187413+00:00", "meta": {"OBJECT_NAME": "COSMOS 2251 DEB", "OBJECT_ID": "1993-036FP", "EPOCH": "2025-12-27T04:11:18.444192", "MEAN_MOTION": 14.58730829, "ECCENTRICITY": 0.0027763, "INCLINATION": 74.0211, "RA_OF_ASC_NODE": 31.8821, "ARG_OF_PERICENTER": 174.3034, "MEAN_ANOMALY": 248.318, "EPHEMERIS_TYPE": 0, "CLASSIFICATION_TYPE": "U", "NORAD_CAT_ID": 33980, "ELEMENT_SET_NO": 999, "REV_AT_EPOCH": 89005, "BSTAR": 0.00065543, "MEAN_MOTION_DOT": 3.047e-05, "MEAN_MOTION_DDOT": 0}, "tle": {"line1": "1 33980U 93036FP  25361.17451903  .00003047  00000+0  65543-3 0  9990", "line2": "2 33980  74.0211  31.8821 0027763 174.3034 248.3180 14.58730829890055"}}, "geometry": {"type": "Point", "coordinates": [31.172943207792436, -0.7309471436253819]}}, {"type": "Feature", "properties": {"norad_id": 33982, "name": "COSMOS 2251 DEB", "group": "cosmos-2251-debris", "lat": -60.59403867845035, "lon": -58.5097657143436, "alt_km": 686.9089116368223, "timestamp": "2025-12-27T10:28:59.187423+00:00", "meta": {"OBJECT_NAME": "COSMOS 2251 DEB", "OBJECT_ID": "1993-036FR", "EPOCH": "2025-12-26T15:50:06.912672", "MEAN_MOTION": 14.60277835, "ECCENTRICITY": 0.00755847, "INCLINATION": 74.0714, "RA_OF_ASC_NODE": 333.4148, "ARG_OF_PERICENTER": 14.0577, "MEAN_ANOMALY": 158.9029, "EPHEMERIS_TYPE": 0, "CLASSIFICATION_TYPE": "U", "NORAD_CAT_ID": 33982, "ELEMENT_SET_NO": 999, "REV_AT_EPOCH": 89362, "BSTAR": 0.00063659298, "MEAN_MOTION_DOT": 3.17e-05, "MEAN_MOTION_DDOT": 0}, "tle": {"line1": "1 33982U 93036FR  25360.65980223  .00003170  00000+0  63659-3 0  9999", "line2": "2 33982  74.0714 333.4148 0075584  14.0577 158.9029 14.60277835893624"}}, "geometry": {"type": "Point", "coordinates": [-58.5097657143436, -60.59403867845035]}}, {"type": "Feature", "properties": {"norad_id": 33983, "name": "COSMOS 2251 DEB", "group": "cosmos-2251-debris", "lat": 72.72943847056844, "lon": -173.65549194877772, "alt_km": 726.9597155383499, "timestamp": "2025-12-27T10:28:59.187433+00:00", "meta": {"OBJECT_NAME": "COSMOS 2251 DEB", "OBJECT_ID": "1993-036FS", "EPOCH": "2025-12-27T02:38:36.960000", "MEAN_MOTION": 14.50732707, "ECCENTRICITY": 0.0021059, "INCLINATION": 74.0504, "RA_OF_ASC_NODE": 120.0546, "ARG_OF_PERICENTER": 221.7092, "MEAN_ANOMALY": 316.5182, "EPHEMERIS_TYPE": 0, "CLASSIFICATION_TYPE": "U", "NORAD_CAT_ID": 33983, "ELEMENT_SET_NO": 999, "REV_AT_EPOCH": 88837, "BSTAR": 0.00070785, "MEAN_MOTION_DOT": 2.765e-05, "MEAN_MOTION_DDOT": 0}, "tle": {"line1": "1 33983U 93036FS  25361.11015000  .00002765  00000+0  70785-3 0  9991", "line2": "2 33983  74.0504 120.0546 0021059 221.7092 316.5182 14.50732707888372"}}, "geometry": {"type": "Point", "coordinates": [-173.65549194877772, 72.72943847056844]}}, {"type": "Feature", "properties": {"norad_id": 33984, "name": "COSMOS 2251 DEB", "group": "cosmos-2251-debris", "lat": -55.75917254592789, "lon": -66.19656608959066, "alt_km": 692.4242032509628, "timestamp": "2025-12-27T10:28:59.187443+00:00", "meta": {"OBJECT_NAME": "COSMOS 2251 DEB", "OBJECT_ID": "1993-036FT", "EPOCH": "2025-12-26T21:44:19.263264", "MEAN_MOTION": 14.66488804, "ECCENTRICITY": 0.002239, "INCLINATION": 74.0097, "RA_OF_ASC_NODE": 319.745, "ARG_OF_PERICENTER": 153.4681, "MEAN_ANOMALY": 224.8643, "EPHEMERIS_TYPE": 0, "CLASSIFICATION_TYPE": "U", "NORAD_CAT_ID": 33984, "ELEMENT_SET_NO": 999, "REV_AT_EPOCH": 89274, "BSTAR": 0.0010382, "MEAN_MOTION_DOT": 5.747e-05, "MEAN_MOTION_DDOT": 0}, "tle": {"line1": "1 33984U 93036FT  25360.90577851  .00005747  00000+0  10382-2 0  9994", "line2": "2 33984  74.0097 319.7450 0022390 153.4681 224.8643 14.66488804892747"}}, "geometry": {"type": "Point", "coordinates": [-66.19656608959066, -55.75917254592789]}}, {"type": "Feature", "properties": {"norad_id": 33986, "name": "COSMOS 2251 DEB", "group": "cosmos-2251-debris", "lat": 17.070005098386307, "lon": 90.33216891339653, "alt_km": 777.1082454018069, "timestamp": "2025-12-27T10:28:59.187453+00:00", "meta": {"OBJECT_NAME": "COSMOS 2251 DEB", "OBJECT_ID": "1993-036FV", "EPOCH": "2025-12-24T20:26:35.700576", "MEAN_MOTION": 14.43260292, "ECCENTRICITY": 0.00410855, "INCLINATION": 74.0366, "RA_OF_ASC_NODE": 280.1744, "ARG_OF_PERICENTER": 350.3243, "MEAN_ANOMALY": 66.1991, "EPHEMERIS_TYPE": 0, "CLASSIFICATION_TYPE": "U", "NORAD_CAT_ID": 33986, "ELEMENT_SET_NO": 999, "REV_AT_EPOCH": 88203, "BSTAR": 0.00070852763, "MEAN_MOTION_DOT": 2.383e-05, "MEAN_MOTION_DDOT": 0}, "tle": {"line1": "1 33986U 93036FV  25358.85180209  .00002383  00000+0  70853-3 0  9997", "line2": "2 33986  74.0366 280.1744 0041085 350.3243  66.1991 14.43260292882037"}}, "geometry": {"type": "Point", "coordinates": [90.33216891339653, 17.070005098386307]}}, {"type": "Feature", "properties": {"norad_id": 33990, "name": "COSMOS 2251 DEB", "group": "cosmos-2251-debris", "lat": -30.446098160820725, "lon": -107.35638422959546, "alt_km": 868.8409362546145, "timestamp": "2025-12-27T10:28:59.187462+00:00", "meta": {"OBJECT_NAME": "COSMOS 2251 DEB", "OBJECT_ID": "1993-036FZ", "EPOCH": "2025-12-27T04:06:33.827040", "MEAN_MOTION": 13.50018993, "ECCENTRICITY": 0.0407235, "INCLINATION": 73.9281, "RA_OF_ASC_NODE": 262.8252, "ARG_OF_PERICENTER": 280.534, "MEAN_ANOMALY": 194.1101, "EPHEMERIS_TYPE": 0, "CLASSIFICATION_TYPE": "U", "NORAD_CAT_ID": 33990, "ELEMENT_SET_NO": 999, "REV_AT_EPOCH": 82924, "BSTAR": 0.00081031, "MEAN_MOTION_DOT": 8.39e-06, "MEAN_MOTION_DDOT": 0}, "tle": {"line1": "1 33990U 93036FZ  25361.17122485  .00000839  00000+0  81031-3 0  9997", "line2": "2 33990  73.9281 262.8252 0407235 280.5340 194.1101 13.50018993829247"}}, "geometry": {"type": "Point", "coordinates": [-107.35638422959546, -30.446098160820725]}}, {"type": "Feature", "properties": {"norad_id": 33992, "name": "COSMOS 2251 DEB", "group": "cosmos-2251-debris", "lat": 23.352989514061825, "lon": 122.2815315734508, "alt_km": 673.5290342799735, "timestamp": "2025-12-27T10:28:59.187472+00:00", "meta": {"OBJECT_NAME": "COSMOS 2251 DEB", "OBJECT_ID": "1993-036GB", "EPOCH": "2025-12-27T03:16:56.216928", "MEAN_MOTION": 14.66337593, "ECCENTRICITY": 0.0051972, "INCLINATION": 74.0245, "RA_OF_ASC_NODE": 309.9651, "ARG_OF_PERICENTER": 63.457, "MEAN_ANOMALY": 308.3205, "EPHEMERIS_TYPE": 0, "CLASSIFICATION_TYPE": "U", "NORAD_CAT_ID": 33992, "ELEMENT_SET_NO": 999, "REV_AT_EPOCH": 89336, "BSTAR": 0.0010645, "MEAN_MOTION_DOT": 5.97e-05, "MEAN_MOTION_DDOT": 0}, "tle": {"line1": "1 33992U 93036GB  25361.13676177  .00005970  00000+0  10645-2 0  9990", "line2": "2 33992  74.0245 309.9651 0051972  63.4570 308.3205 14.66337593893369"}}, "geometry": {"type": "Point", "coordinates": [122.2815315734508, 23.352989514061825]}}, {"type": "Feature", "properties": {"norad_id": 33994, "name": "COSMOS 2251 DEB", "group": "cosmos-2251-debris", "lat": -2.9859462898782776, "lon": -15.93253333009476, "alt_km": 763.8621464024181, "timestamp": "2025-12-27T10:28:59.187482+00:00", "meta": {"OBJECT_NAME": "COSMOS 2251 DEB", "OBJECT_ID": "1993-036GD", "EPOCH": "2025-12-26T20:50:24.921600", "MEAN_MOTION": 14.41223493, "ECCENTRICITY": 0.00240485, "INCLINATION": 74.0415, "RA_OF_ASC_NODE": 164.2639, "ARG_OF_PERICENTER": 296.2339, "MEAN_ANOMALY": 178.8438, "EPHEMERIS_TYPE": 0, "CLASSIFICATION_TYPE": "U", "NORAD_CAT_ID": 33994, "ELEMENT_SET_NO": 999, "REV_AT_EPOCH": 88623, "BSTAR": 0.00011189992, "MEAN_MOTION_DOT": 3.36e-06, "MEAN_MOTION_DDOT": 0}, "tle": {"line1": "1 33994U 93036GD  25360.86834400  .00000336  00000+0  11190-3 0  9994", "line2": "2 33994  74.0415 164.2639 0024048 296.2339 178.8438 14.41223493886233"}}, "geometry": {"type": "Point", "coordinates": [-15.93253333009476, -2.9859462898782776]}}, {"type": "Feature", "properties": {"norad_id": 33995, "name": "COSMOS 2251 DEB", "group": "cosmos-2251-debris", "lat": -71.06678697609107, "lon": 36.04664417215924, "alt_km": 824.8360022532852, "timestamp": "2025-12-27T10:28:59.187492+00:00", "meta": {"OBJECT_NAME": "COSMOS 2251 DEB", "OBJECT_ID": "1993-036GE", "EPOCH": "2025-12-26T14:46:37.186752", "MEAN_MOTION": 14.34838318, "ECCENTRICITY": 0.0059177, "INCLINATION": 74.0614, "RA_OF_ASC_NODE": 93.9659, "ARG_OF_PERICENTER": 104.3798, "MEAN_ANOMALY": 256.3933, "EPHEMERIS_TYPE": 0, "CLASSIFICATION_TYPE": "U", "NORAD_CAT_ID": 33995, "ELEMENT_SET_NO": 999, "REV_AT_EPOCH": 87718, "BSTAR": 0.00082073, "MEAN_MOTION_DOT": 2.352e-05, "MEAN_MOTION_DDOT": 0}, "tle": {"line1": "1 33995U 93036GE  25360.61570818  .00002352  00000+0  82073-3 0  9996", "line2": "2 33995  74.0614  93.9659 0059177 104.3798 256.3933 14.34838318877180"}}, "geometry": {"type": "Point", "coordinates": [36.04664417215924, -71.06678697609107]}}, {"type": "Feature", "properties": {"norad_id": 33999, "name": "COSMOS 2251 DEB", "group": "cosmos-2251-debris", "lat": 44.65321001449569, "lon": 4.8993293062039465, "alt_km": 590.0024651537142, "timestamp": "2025-12-27T10:28:59.187502+00:00", "meta": {"OBJECT_NAME": "COSMOS 2251 DEB", "OBJECT_ID": "1993-036GJ", "EPOCH": "2025-12-26T22:33:42.219936", "MEAN_MOTION": 14.83640086, "ECCENTRICITY": 0.0044352, "INCLINATION": 73.9179, "RA_OF_ASC_NODE": 202.4501, "ARG_OF_PERICENTER": 93.5688, "MEAN_ANOMALY": 267.0563, "EPHEMERIS_TYPE": 0, "CLASSIFICATION_TYPE": "U", "NORAD_CAT_ID": 33999, "ELEMENT_SET_NO": 999, "REV_AT_EPOCH": 89461, "BSTAR": 0.001402, "MEAN_MOTION_DOT": 0.00011759, "MEAN_MOTION_DDOT": 0}, "tle": {"line1": "1 33999U 93036GJ  25360.94007199  .00011759  00000+0  14020-2 0  9990", "line2": "2 33999  73.9179 202.4501 0044352  93.5688 267.0563 14.83640086894619"}}, "geometry": {"type": "Point", "coordinates": [4.8993293062039465, 44.65321001449569]}}]}